STARLINK-3293           
1 50176U 21125W   26068.82048934  .00001493  00000+0  11189-3 0  9999
2 50176  53.2166 248.5343 0001258  86.2582 273.8554 15.08840405236662
DISKSAT D               
1 67221U 25305C   26068.55257179  .00011599  00000+0  76841-3 0  9999
2 67221  45.0023 251.6339 0003712 319.2749  40.7848 15.07416577 12277
