[{"OBJECT_NAME":"STARLINK-3293","OBJECT_ID":"2021-125W","EPOCH":"2026-03-09T19:41:30.278976","MEAN_MOTION":15.08840405,"ECCENTRICITY":0.00012576,"INCLINATION":53.2166,"RA_OF_ASC_NODE":248.5343,"ARG_OF_PERICENTER":86.2582,"MEAN_ANOMALY":273.8554,"EPHEMERIS_TYPE":0,"CLASSIFICATION_TYPE":"U","NORAD_CAT_ID":50176,"ELEMENT_SET_NO":999,"REV_AT_EPOCH":23666,"BSTAR":0.00011188765,"MEAN_MOTION_DOT":1.493e-5,"MEAN_MOTION_DDOT":0},{"OBJECT_NAME":"DISKSAT D","OBJECT_ID":"2025-305C","EPOCH":"2026-03-09T13:15:42.202656","MEAN_MOTION":15.07416577,"ECCENTRICITY":0.00037124,"INCLINATION":45.0023,"RA_OF_ASC_NODE":251.6339,"ARG_OF_PERICENTER":319.2749,"MEAN_ANOMALY":40.7848,"EPHEMERIS_TYPE":0,"CLASSIFICATION_TYPE":"U","NORAD_CAT_ID":67221,"ELEMENT_SET_NO":999,"REV_AT_EPOCH":1227,"BSTAR":0.00076840651,"MEAN_MOTION_DOT":0.00011599,"MEAN_MOTION_DDOT":0}]
